[{"OBJECT_NAME":"DONGPO 08","OBJECT_ID":"2022-167E","EPOCH":"2026-03-09T22:57:52.742880","MEAN_MOTION":15.31542505,"ECCENTRICITY":0.00092155,"INCLINATION":97.6764,"RA_OF_ASC_NODE":233.3854,"ARG_OF_PERICENTER":153.9158,"MEAN_ANOMALY":206.2548,"EPHEMERIS_TYPE":0,"CLASSIFICATION_TYPE":"U","NORAD_CAT_ID":54686,"ELEMENT_SET_NO":999,"REV_AT_EPOCH":18012,"BSTAR":0.0004734784,"MEAN_MOTION_DOT":0.0001437,"MEAN_MOTION_DDOT":0},{"OBJECT_NAME":"STARLINK-34531","OBJECT_ID":"2025-144AC","EPOCH":"2026-03-09T15:03:22.789440","MEAN_MOTION":15.30140586,"ECCENTRICITY":0.0002417,"INCLINATION":53.1607,"RA_OF_ASC_NODE":181.2366,"ARG_OF_PERICENTER":48.4635,"MEAN_ANOMALY":311.6573,"EPHEMERIS_TYPE":0,"CLASSIFICATION_TYPE":"U","NORAD_CAT_ID":64750,"ELEMENT_SET_NO":999,"REV_AT_EPOCH":3970,"BSTAR":-0.0011666,"MEAN_MOTION_DOT":-0.0003469,"MEAN_MOTION_DDOT":0}]
